STARLINK-5287           
1 55293U 23010AA  26131.53831185  .00000721  00000+0  68228-4 0  9996
2 55293  69.9996 225.9747 0002278 260.1158  99.9744 14.98306428182684
STARLINK-5286           
1 55294U 23010AB  26131.60937396 -.00000785  00000+0 -57977-4 0  9997
2 55294  69.9997 245.6868 0003055 270.4274  89.6534 14.98338360182207
STARLINK-5293           
1 55295U 23010AC  26131.38407575  .00000486  00000+0  48506-4 0  9998
2 55295  69.9995 246.5093 0003630 268.0565  92.0178 14.98330396182170
STARLINK-5285           
1 55296U 23010AD  26131.52152261 -.00000410  00000+0 -26591-4 0  9993
2 55296  69.9999 225.9143 0003352 267.9221  92.1554 14.98331263183567
STARLINK-5284           
1 55297U 23010AE  26131.52986805  .00000216  00000+0  25915-4 0  9994
2 55297  69.9998 225.9445 0003436 269.3709  90.7057 14.98331711182684
STARLINK-5270           
1 55299U 23010AG  26131.38382899 -.00000441  00000+0 -29128-4 0  9995
2 55299  70.0002 226.2381 0003330 270.2326  89.8452 14.98329777183540
STARLINK-5308           
1 55300U 23010AH  26131.51319376 -.00001477  00000+0 -11604-3 0  9992
2 55300  69.9987 225.8832 0003805 266.8745  93.1979 14.98315042182687
STARLINK-5321           
1 55302U 23010AK  26131.52569963 -.00000789  00000+0 -58281-4 0  9992
2 55302  70.0000 225.9271 0003311 272.0764  88.0016 14.98336364182683
STARLINK-5322           
1 55303U 23010AL  26131.59685432  .00000273  00000+0  30654-4 0  9990
2 55303  69.9998 245.6424 0003276 269.4150  90.6633 14.98330716182202
STARLINK-5318           
1 55304U 23010AM  26131.50899998  .00000140  00000+0  19554-4 0  9995
2 55304  70.0001 225.8699 0003428 268.6374  91.4392 14.98328351182688
STARLINK-5316           
1 55305U 23010AN  26131.37133321  .00000014  00000+0  90103-5 0  9992
2 55305  70.0002 226.5972 0003259 271.5329  88.5456 14.98326451182662
STARLINK-5295           
1 55306U 23010AP  26131.47541259  .00000492  00000+0  49051-4 0  9992
2 55306  70.0002 206.2829 0002933 270.7719  89.3104 14.98328278183176
STARLINK-5288           
1 55307U 23010AQ  26131.47958321 -.00000569  00000+0 -39888-4 0  9999
2 55307  69.9994 206.2982 0003726 270.0581  90.0151 14.98334234183175
STARLINK-5315           
1 55309U 23010AS  26131.49625372  .00000480  00000+0  47975-4 0  9996
2 55309  69.9997 205.9551 0003373 270.7153  89.3619 14.98338383183188
STARLINK-5309           
1 55310U 23010AT  26131.46706234 -.00000335  00000+0 -20268-4 0  9999
2 55310  70.0001 206.2530 0003469 270.6800  89.3961 14.98329964183178
STARLINK-5312           
1 55311U 23010AU  26131.47123453 -.00000147  00000+0 -45599-5 0  9993
2 55311  69.9997 206.2678 0003359 268.9388  91.1386 14.98330408184046
STARLINK-5296           
1 55312U 23010AV  26131.37524738 -.00000115  00000+0 -18767-5 0  9996
2 55312  69.9997 206.2211 0003503 271.0655  89.0102 14.98331651184024
STARLINK-5313           
1 55313U 23010AW  26131.45871671  .00000650  00000+0  62210-4 0  9990
2 55313  69.9997 206.2232 0003460 269.7177  90.3586 14.98341022184049
STARLINK-5305           
1 55314U 23010AX  26131.46288764 -.00000170  00000+0 -64349-5 0  9992
2 55314  69.9998 206.2362 0003374 269.3559  90.7213 14.98328579184042
STARLINK-4623           
1 55315U 23010AY  26131.54239096  .00000134  00000+0  19021-4 0  9990
2 55315  69.9997 225.9883 0003705 274.4463  85.6273 14.98332040182671
STARLINK-5257           
1 55316U 23010AZ  26131.50042599  .00000042  00000+0  11300-4 0  9997
2 55316  69.9998 205.9834 0003475 269.0807  90.9954 14.98333211184053
STARLINK-5265           
1 55317U 23010BA  26131.45453786  .00000665  00000+0  63501-4 0  9997
2 55317  70.0000 206.2347 0003485 271.4450  88.6309 14.98329705184046
STARLINK-5180           
1 55318U 23010BB  26131.38360591  .00000020  00000+0  94935-5 0  9992
2 55318  69.9998 206.3624 0003222 270.9361  89.1429 14.98327164184038
STARLINK-5196           
1 55319U 23010BC  26131.37943045 -.00000117  00000+0 -20422-5 0  9992
2 55319  69.9998 206.3483 0003322 270.1155  89.9623 14.98330100184034
HAWK-6B                 
1 55324U 23011A   26131.52177288  .00002632  00000+0  11911-3 0  9997
2 55324  40.4977 205.8738 0002318 155.0065 205.0857 15.22602695182254
HAWK-6C                 
1 55326U 23011C   26131.25876516  .00002689  00000+0  12150-3 0  9997
2 55326  40.4965 204.2487 0002392 134.4313 225.6693 15.22601340182225
HAWK-6A                 
1 55327U 23011D   26131.25880877  .00002760  00000+0  12450-3 0  9996
2 55327  40.4976 205.8701 0002049 133.5699 226.5281 15.22602302182222
STARLINK-5492           
1 55331U 23013A   26131.53379234  .00000145  00000+0  14789-4 0  9997
2 55331  43.0011 308.5860 0001220 272.1312  87.9400 15.27575218182362
STARLINK-5491           
1 55332U 23013B   26131.48691553 -.00001825  00000+0 -56832-4 0  9996
2 55332  43.0032 294.3630 0001325 271.8461  88.2239 15.27566116181449
STARLINK-5493           
1 55333U 23013C   26131.53479737 -.00094247  00000+0 -36237-2 0  9996
2 55333  43.0046 308.5913 0004138 342.8762  17.1949 15.26041613181285
STARLINK-5652           
1 55334U 23013D   26131.53670654 -.00000016  00000+0  91045-5 0  9999
2 55334  43.0047 308.5072 0001362 266.1498  93.9198 15.26740178181283
STARLINK-5660           
1 55335U 23013E   26131.54536237  .00000648  00000+0  33074-4 0  9996
2 55335  43.0015 308.6727 0001258 263.3074  96.7635 15.27584862181284
STARLINK-5655           
1 55336U 23013F   26131.46889717  .00001118  00000+0  50158-4 0  9997
2 55336  43.0019 294.1423 0001273 263.9934  96.0773 15.27566143181445
STARLINK-5667           
1 55337U 23013G   26131.43306641  .00000274  00000+0  19493-4 0  9994
2 55337  43.0026 294.7853 0001546 285.8660  74.2021 15.27576810181434
STARLINK-5658           
1 55338U 23013H   26131.54921083  .00000301  00000+0  20486-4 0  9995
2 55338  43.0046 308.7017 0001512 268.4919  91.5760 15.27575941181281
STARLINK-5671           
1 55339U 23013J   26131.54357810  .00000157  00000+0  15228-4 0  9994
2 55339  43.0011 312.0636 0001151 269.5622  90.5098 15.27575770181240
STARLINK-5675           
1 55340U 23013K   26131.50937973  .00000890  00000+0  41842-4 0  9991
2 55340  43.0014 308.4037 0001328 275.8210  84.2490 15.27586567181284
STARLINK-5670           
1 55341U 23013L   26131.55178698  .00000738  00000+0  36345-4 0  9991
2 55341  43.0063 308.7178 0001755 273.1474  86.9177 15.27571648181280
STARLINK-5657           
1 55342U 23013M   26131.55563377 -.00000800  00000+0 -19538-4 0  9991
2 55342  43.0024 308.7424 0001359 260.2522  99.8176 15.27573743181283
STARLINK-5661           
1 55343U 23013N   26130.90613613 -.00000512  00000+0 -93921-5 0  9998
2 55343  43.0061 311.6176 0001907 275.3153  84.7480 15.26739799181193
STARLINK-5653           
1 55345U 23013Q   26131.49074870  .00000125  00000+0  14076-4 0  9992
2 55345  43.0027 294.3824 0001097 267.2767  92.7959 15.27574888181440
STARLINK-5631           
1 55346U 23013R   26130.91447767  .00001321  00000+0  57522-4 0  9990
2 55346  43.0015 311.6684 0001335 262.9969  97.0731 15.27585322181199
STARLINK-5663           
1 55347U 23013S   26131.56429841  .00000391  00000+0  24257-4 0  9991
2 55347  43.0026 307.9500 0001451 259.3547 100.7141 15.26749273181292
STARLINK-5609           
1 55348U 23013T   26131.18630292  .00001766  00000+0  73698-4 0  9994
2 55348  43.0018 310.2676 0000990 268.7490  91.3248 15.27566439181232
STARLINK-5666           
1 55349U 23013U   26131.51041748 -.00000211  00000+0  18137-5 0  9997
2 55349  43.0021 308.4002 0001457 263.3063  96.7622 15.26744104181281
STARLINK-5668           
1 55350U 23013V   26131.56319969  .00001376  00000+0  59531-4 0  9991
2 55350  43.0029 307.9372 0001451 264.3723  95.6963 15.27572377181292
STARLINK-5659           
1 55351U 23013W   26131.51195114 -.00001892  00000+0 -59264-4 0  9999
2 55351  43.0022 308.4080 0001022 274.1544  85.9191 15.27574778181283
STARLINK-5547           
1 55352U 23013X   26131.46248837  .00000952  00000+0  44137-4 0  9992
2 55352  43.0070 305.4986 0001427 267.7501  92.3188 15.27555039181310
STARLINK-5608           
1 55353U 23013Y   26131.50984870  .00000584  00000+0  30728-4 0  9994
2 55353  42.9983 304.9902 0000243 296.1572  63.9255 15.27597276181322
STARLINK-5649           
1 55354U 23013Z   26130.78240076 -.00000174  00000+0  31807-5 0  9993
2 55354  43.0008 312.3967 0001046 240.9698 119.1049 15.26737831181175
STARLINK-5647           
1 55355U 23013AA  26130.93328202 -.00000706  00000+0 -16648-4 0  9996
2 55355  43.0019 311.7854 0000665 260.8132  99.2644 15.26729772181181
STARLINK-5651           
1 55357U 23013AC  26131.51965393 -.00002444  00000+0 -79285-4 0  9998
2 55357  43.0016 308.4634 0001300 272.7085  87.3618 15.27587434181283
STARLINK-5622           
1 55358U 23013AD  26131.18547984  .00001017  00000+0  47596-4 0  9997
2 55358  43.0047 310.2611 0001020 253.4011 106.6728 15.26747414181235
STARLINK-5641           
1 55359U 23013AE  26131.20248836  .00005132  00000+0  19578-3 0  9995
2 55359  43.0015 313.8007 0001045 273.1106  86.9626 15.27599234181198
STARLINK-5664           
1 55360U 23013AF  26131.58372306 -.00003174  00000+0 -11157-3 0  9999
2 55360  42.9978 326.1913 0000798 262.3458  97.7303 15.25909806181081
STARLINK-5665           
1 55361U 23013AG  26131.52015826  .00001204  00000+0  53262-4 0  9999
2 55361  43.0038 293.7601 0001481 262.1698  97.8986 15.27576856181454
STARLINK-5574           
1 55362U 23013AH  26131.66668981 -.00014240  00000+0 -50869-3 0  9996
2 55362  43.0007 292.8619 0001683 277.6481 204.4401 15.27595020  5711
STARLINK-5627           
1 55364U 23013AK  26131.52558887  .00000728  00000+0  35996-4 0  9995
2 55364  43.0011 311.9262 0001330 271.1973  88.8727 15.27575311181248
STARLINK-5639           
1 55365U 23013AL  26131.24847885  .00081718  00000+0  30606-2 0  9993
2 55365  43.0025 327.9820 0005221  87.6646 272.4803 15.26317015181038
